{
  "schema_version": 1,
  "seed": 1,
  "age_s": 1.0473997763154722e+17,
  "stars": [
    {
      "mass_kg": 8.786628740474347e+29,
      "radius_m": 361897824.76517963,
      "luminosity_w": 1.4581149942633689e+25,
      "temperature_k": 3535.487445881555,
      "main_sequence_lifetime_s": 2.4329018589756626e+18,
      "orbit": null
    }
  ],
  "planet_host": "Primary",
  "planets": [
    {
      "class": "IceGiant",
      "mass_kg": 1.0559993653241114e+26,
      "radius_m": 26789972.14744829,
      "orbit": {
        "semi_major_axis_m": 7151273355664.099,
        "eccentricity": 0.018926380960637947,
        "inclination_rad": 0.023078029151097624,
        "raan_rad": 4.550873999604901,
        "arg_periapsis_rad": 4.209111260187258,
        "mean_anomaly_epoch_rad": 5.666739138675216
      },
      "secular": {
        "apsidal_rad_per_s": 1.0965261595580426e-19,
        "nodal_rad_per_s": 0.0,
        "migration_m_per_s": 0.0
      },
      "axial_tilt_rad": 0.43215707098277106,
      "axial_precession_rad_per_s": 2.0301828468680225e-12,
      "rotation_period_s": 32885.5621245236,
      "spin_drift_s_per_s": 1.491881205521944e-13,
      "state": "Living",
      "moons": [
        {
          "mass_kg": 1.1779746059191093e+21,
          "radius_m": 454264.3842357795,
          "orbit": {
            "semi_major_axis_m": 206854455.18322954,
            "eccentricity": 0.022979221352797865,
            "inclination_rad": 0.012557692047595138,
            "raan_rad": 4.284618608670836,
            "arg_periapsis_rad": 1.3033480431259414,
            "mean_anomaly_epoch_rad": 1.747565621164215
          },
          "secular": {
            "apsidal_rad_per_s": 8.949253393034115e-15,
            "nodal_rad_per_s": -4.2615492347781496e-15,
            "migration_m_per_s": 1.8173568268711674e-7
          },
          "tidally_locked": true,
          "rotation_period_s": 222660.14960737646,
          "doom_time_s": null
        },
        {
          "mass_kg": 3.9982935573522945e+21,
          "radius_m": 682686.9551244723,
          "orbit": {
            "semi_major_axis_m": 439484203.4434012,
            "eccentricity": 0.014463006712242566,
            "inclination_rad": 0.03387707760558794,
            "raan_rad": 4.225254348685916,
            "arg_periapsis_rad": 1.2167367633802868,
            "mean_anomaly_epoch_rad": 1.2283072852934758
          },
          "secular": {
            "apsidal_rad_per_s": 2.7700612812141303e-14,
            "nodal_rad_per_s": -1.3190768005781572e-14,
            "migration_m_per_s": 9.775698693176343e-9
          },
          "tidally_locked": true,
          "rotation_period_s": 689540.9810795749,
          "doom_time_s": null
        },
        {
          "mass_kg": 2.025769679626666e+21,
          "radius_m": 544243.6879486052,
          "orbit": {
            "semi_major_axis_m": 725946926.9064109,
            "eccentricity": 0.05572937004409749,
            "inclination_rad": 0.045948926073241726,
            "raan_rad": 5.799637288407151,
            "arg_periapsis_rad": 0.4334853692024166,
            "mean_anomaly_epoch_rad": 2.319768954196982
          },
          "secular": {
            "apsidal_rad_per_s": 5.877902961293011e-14,
            "nodal_rad_per_s": -2.7990014101395293e-14,
            "migration_m_per_s": 3.1338224596851407e-10
          },
          "tidally_locked": true,
          "rotation_period_s": 1463869.9124044625,
          "doom_time_s": null
        },
        {
          "mass_kg": 2.4623475110377377e+22,
          "radius_m": 1251352.9649181915,
          "orbit": {
            "semi_major_axis_m": 1752050141.8479016,
            "eccentricity": 0.015968413659335816,
            "inclination_rad": 0.007282765661355611,
            "raan_rad": 4.059300604438528,
            "arg_periapsis_rad": 1.692835515261295,
            "mean_anomaly_epoch_rad": 5.394514600334719
          },
          "secular": {
            "apsidal_rad_per_s": 2.2061346196621972e-13,
            "nodal_rad_per_s": -1.0505402950772367e-13,
            "migration_m_per_s": 2.994363617689557e-11
          },
          "tidally_locked": true,
          "rotation_period_s": 5488642.8840693245,
          "doom_time_s": null
        }
      ],
      "calendar": null
    },
    {
      "class": "Rocky",
      "mass_kg": 6.732293165936026e+24,
      "radius_m": 6580446.274573375,
      "orbit": {
        "semi_major_axis_m": 9474109637681.8,
        "eccentricity": 0.03458069167488598,
        "inclination_rad": 0.037322352398432505,
        "raan_rad": 2.90090742994551,
        "arg_periapsis_rad": 5.00030118095856,
        "mean_anomaly_epoch_rad": 2.984415064313224
      },
      "secular": {
        "apsidal_rad_per_s": 5.432446830147761e-20,
        "nodal_rad_per_s": 0.0,
        "migration_m_per_s": 0.0
      },
      "axial_tilt_rad": 0.42384025440789436,
      "axial_precession_rad_per_s": 2.510249389669225e-18,
      "rotation_period_s": 145134.68065838295,
      "spin_drift_s_per_s": 0.0,
      "state": "Living",
      "moons": [],
      "calendar": null
    }
  ],
  "anchor_planet": 2
}
